{
  "type": "FeatureCollection",
  "features": [
    {
      "type": "Feature",
      "properties": {
        "norad_id": 33986,
        "name": "COSMOS 2251 DEB",
        "group": "cosmos-2251-debris",
        "lat": 4.155393485856691,
        "lon": -37.02662399917953,
        "alt_km": 726.3140153910053,
        "timestamp": "2025-12-02T10:50:47.668894+00:00",
        "meta_object_name": "COSMOS 2251 DEB",
        "meta_object_id": "1993-036FV",
        "meta_epoch": "2025-12-01T23:16:51.627072",
        "meta_mean_motion": 14.4311158,
        "meta_eccentricity": 0.0039891,
        "meta_inclination": 74.0364,
        "meta_ra_of_asc_node": 322.6763,
        "meta_arg_of_pericenter": 38.0925,
        "meta_mean_anomaly": 344.0411,
        "meta_ephemeris_type": 0,
        "meta_classification_type": "U",
        "meta_norad_cat_id": 33986,
        "meta_element_set_no": 999,
        "meta_rev_at_epoch": 87873,
        "meta_bstar": 0.00087999,
        "meta_mean_motion_dot": 2.956e-05,
        "meta_mean_motion_ddot": 0,
        "tle_line1": "1 33986U 93036FV  25335.97004198  .00002956  00000+0  87999-3 0  9992",
        "tle_line2": "2 33986  74.0364 322.6763 0039891  38.0925 344.0411 14.43111580878739"
      },
      "geometry": {
        "type": "Point",
        "coordinates": [
          -37.02662399917953,
          4.155393485856691
        ]
      }
    },
    {
      "type": "Feature",
      "properties": {
        "norad_id": 33990,
        "name": "COSMOS 2251 DEB",
        "group": "cosmos-2251-debris",
        "lat": -71.08855401331091,
        "lon": 179.80612055984054,
        "alt_km": 940.019628131472,
        "timestamp": "2025-12-02T10:50:47.668905+00:00",
        "meta_object_name": "COSMOS 2251 DEB",
        "meta_object_id": "1993-036FZ",
        "meta_epoch": "2025-12-02T04:15:41.353344",
        "meta_mean_motion": 13.49938009,
        "meta_eccentricity": 0.040759,
        "meta_inclination": 73.9276,
        "meta_ra_of_asc_node": 302.9513,
        "meta_arg_of_pericenter": 325.1574,
        "meta_mean_anomaly": 45.9769,
        "meta_ephemeris_type": 0,
        "meta_classification_type": "U",
        "meta_norad_cat_id": 33990,
        "meta_element_set_no": 999,
        "meta_rev_at_epoch": 82587,
        "meta_bstar": 0.0016481,
        "meta_mean_motion_dot": 1.731e-05,
        "meta_mean_motion_ddot": 0,
        "tle_line1": "1 33990U 93036FZ  25336.17756196  .00001731  00000+0  16481-2 0  9999",
        "tle_line2": "2 33990  73.9276 302.9513 0407590 325.1574  45.9769 13.49938009825871"
      },
      "geometry": {
        "type": "Point",
        "coordinates": [
          179.80612055984054,
          -71.08855401331091
        ]
      }
    },
    {
      "type": "Feature",
      "properties": {
        "norad_id": 33992,
        "name": "COSMOS 2251 DEB",
        "group": "cosmos-2251-debris",
        "lat": 73.98898952269062,
        "lon": 84.26986138477427,
        "alt_km": 634.3645454096395,
        "timestamp": "2025-12-02T10:50:47.668915+00:00",
        "meta_object_name": "COSMOS 2251 DEB",
        "meta_object_id": "1993-036GB",
        "meta_epoch": "2025-12-02T04:11:13.071840",
        "meta_mean_motion": 14.6608144,
        "meta_eccentricity": 0.0051819,
        "meta_inclination": 74.0244,
        "meta_ra_of_asc_node": 358.1139,
        "meta_arg_of_pericenter": 119.3418,
        "meta_mean_anomaly": 306.1145,
        "meta_ephemeris_type": 0,
        "meta_classification_type": "U",
        "meta_norad_cat_id": 33992,
        "meta_element_set_no": 999,
        "meta_rev_at_epoch": 88970,
        "meta_bstar": 0.00077727,
        "meta_mean_motion_dot": 4.324e-05,
        "meta_mean_motion_ddot": 0,
        "tle_line1": "1 33992U 93036GB  25336.17445685  .00004324  00000+0  77727-3 0  9991",
        "tle_line2": "2 33992  74.0244 358.1139 0051819 119.3418 306.1145 14.66081440889706"
      },
      "geometry": {
        "type": "Point",
        "coordinates": [
          84.26986138477427,
          73.98898952269062
        ]
      }
    },
    {
      "type": "Feature",
      "properties": {
        "norad_id": 33994,
        "name": "COSMOS 2251 DEB",
        "group": "cosmos-2251-debris",
        "lat": -23.767257539353263,
        "lon": 36.68538983839621,
        "alt_km": 772.536111443018,
        "timestamp": "2025-12-02T10:50:47.668926+00:00",
        "meta_object_name": "COSMOS 2251 DEB",
        "meta_object_id": "1993-036GD",
        "meta_epoch": "2025-12-02T02:19:09.124032",
        "meta_mean_motion": 14.41204074,
        "meta_eccentricity": 0.0023244,
        "meta_inclination": 74.0427,
        "meta_ra_of_asc_node": 210.1041,
        "meta_arg_of_pericenter": 346.474,
        "meta_mean_anomaly": 175.6605,
        "meta_ephemeris_type": 0,
        "meta_classification_type": "U",
        "meta_norad_cat_id": 33994,
        "meta_element_set_no": 999,
        "meta_rev_at_epoch": 88266,
        "meta_bstar": 0.00011325,
        "meta_mean_motion_dot": 3.4e-06,
        "meta_mean_motion_ddot": 0,
        "tle_line1": "1 33994U 93036GD  25336.09663338  .00000340  00000+0  11325-3 0  9997",
        "tle_line2": "2 33994  74.0427 210.1041 0023244 346.4740 175.6605 14.41204074882663"
      },
      "geometry": {
        "type": "Point",
        "coordinates": [
          36.68538983839621,
          -23.767257539353263
        ]
      }
    },
    {
      "type": "Feature",
      "properties": {
        "norad_id": 33995,
        "name": "COSMOS 2251 DEB",
        "group": "cosmos-2251-debris",
        "lat": 18.285353129350167,
        "lon": -47.248192561599026,
        "alt_km": 732.6620758360532,
        "timestamp": "2025-12-02T10:50:47.668936+00:00",
        "meta_object_name": "COSMOS 2251 DEB",
        "meta_object_id": "1993-036GE",
        "meta_epoch": "2025-12-02T03:24:24.875712",
        "meta_mean_motion": 14.34673586,
        "meta_eccentricity": 0.0060994,
        "meta_inclination": 74.0599,
        "meta_ra_of_asc_node": 138.7376,
        "meta_arg_of_pericenter": 155.9767,
        "meta_mean_anomaly": 204.4252,
        "meta_ephemeris_type": 0,
        "meta_classification_type": "U",
        "meta_norad_cat_id": 33995,
        "meta_element_set_no": 999,
        "meta_rev_at_epoch": 87367,
        "meta_bstar": 0.0011765,
        "meta_mean_motion_dot": 3.375e-05,
        "meta_mean_motion_ddot": 0,
        "tle_line1": "1 33995U 93036GE  25336.14195458  .00003375  00000+0  11765-2 0  9995",
        "tle_line2": "2 33995  74.0599 138.7376 0060994 155.9767 204.4252 14.34673586873675"
      },
      "geometry": {
        "type": "Point",
        "coordinates": [
          -47.248192561599026,
          18.285353129350167
        ]
      }
    },
    {
      "type": "Feature",
      "properties": {
        "norad_id": 33999,
        "name": "COSMOS 2251 DEB",
        "group": "cosmos-2251-debris",
        "lat": -32.9998042568218,
        "lon": -119.50878434942794,
        "alt_km": 656.9562863349911,
        "timestamp": "2025-12-02T10:50:47.668946+00:00",
        "meta_object_name": "COSMOS 2251 DEB",
        "meta_object_id": "1993-036GJ",
        "meta_epoch": "2025-12-02T01:17:20.246784",
        "meta_mean_motion": 14.82964407,
        "meta_eccentricity": 0.0044714,
        "meta_inclination": 73.9198,
        "meta_ra_of_asc_node": 252.0812,
        "meta_arg_of_pericenter": 150.7523,
        "meta_mean_anomaly": 209.6172,
        "meta_ephemeris_type": 0,
        "meta_classification_type": "U",
        "meta_norad_cat_id": 33999,
        "meta_element_set_no": 999,
        "meta_rev_at_epoch": 89092,
        "meta_bstar": 0.0016967,
        "meta_mean_motion_dot": 0.00014016,
        "meta_mean_motion_ddot": 0,
        "tle_line1": "1 33999U 93036GJ  25336.05370656  .00014016  00000+0  16967-2 0  9997",
        "tle_line2": "2 33999  73.9198 252.0812 0044714 150.7523 209.6172 14.82964407890925"
      },
      "geometry": {
        "type": "Point",
        "coordinates": [
          -119.50878434942794,
          -32.9998042568218
        ]
      }
    },
    {
      "type": "Feature",
      "properties": {
        "norad_id": 34001,
        "name": "COSMOS 2251 DEB",
        "group": "cosmos-2251-debris",
        "lat": -45.767408473723016,
        "lon": 137.6010523843164,
        "alt_km": 787.2774342061739,
        "timestamp": "2025-12-02T10:50:47.668956+00:00",
        "meta_object_name": "COSMOS 2251 DEB",
        "meta_object_id": "1993-036GL",
        "meta_epoch": "2025-12-02T00:03:46.149408",
        "meta_mean_motion": 14.37074838,
        "meta_eccentricity": 0.001947,
        "meta_inclination": 74.0382,
        "meta_ra_of_asc_node": 301.3305,
        "meta_arg_of_pericenter": 24.9991,
        "meta_mean_anomaly": 39.5686,
        "meta_ephemeris_type": 0,
        "meta_classification_type": "U",
        "meta_norad_cat_id": 34001,
        "meta_element_set_no": 999,
        "meta_rev_at_epoch": 87992,
        "meta_bstar": 0.00024685,
        "meta_mean_motion_dot": 7.08e-06,
        "meta_mean_motion_ddot": 0,
        "tle_line1": "1 34001U 93036GL  25336.00261747  .00000708  00000+0  24685-3 0  9997",
        "tle_line2": "2 34001  74.0382 301.3305 0019470  24.9991  39.5686 14.37074838879921"
      },
      "geometry": {
        "type": "Point",
        "coordinates": [
          137.6010523843164,
          -45.767408473723016
        ]
      }
    }
  ]
}